[{"OBJECT_NAME":"CS2","OBJECT_ID":"2021-088C","EPOCH":"2026-03-09T17:38:11.846112","MEAN_MOTION":15.3325593,"ECCENTRICITY":0.00116375,"INCLINATION":97.3928,"RA_OF_ASC_NODE":134.2907,"ARG_OF_PERICENTER":82.3491,"MEAN_ANOMALY":277.9072,"EPHEMERIS_TYPE":0,"CLASSIFICATION_TYPE":"U","NORAD_CAT_ID":49262,"ELEMENT_SET_NO":999,"REV_AT_EPOCH":24526,"BSTAR":0.0005617759,"MEAN_MOTION_DOT":0.00018033,"MEAN_MOTION_DDOT":0},{"OBJECT_NAME":"STARLINK-33734","OBJECT_ID":"2025-063E","EPOCH":"2026-03-09T23:35:28.039488","MEAN_MOTION":15.30217354,"ECCENTRICITY":0.00016835,"INCLINATION":53.1602,"RA_OF_ASC_NODE":61.0759,"ARG_OF_PERICENTER":77.5329,"MEAN_ANOMALY":282.586,"EPHEMERIS_TYPE":0,"CLASSIFICATION_TYPE":"U","NORAD_CAT_ID":63367,"ELEMENT_SET_NO":999,"REV_AT_EPOCH":5461,"BSTAR":0.0011497586,"MEAN_MOTION_DOT":0.00033867,"MEAN_MOTION_DDOT":0}]
